[{"OBJECT_NAME":"STARLINK-5759","OBJECT_ID":"2023-020Z","EPOCH":"2026-03-09T22:00:01.999584","MEAN_MOTION":15.11213795,"ECCENTRICITY":7.655e-5,"INCLINATION":43.0001,"RA_OF_ASC_NODE":2.8746,"ARG_OF_PERICENTER":245.4266,"MEAN_ANOMALY":332.6605,"EPHEMERIS_TYPE":0,"CLASSIFICATION_TYPE":"U","NORAD_CAT_ID":55592,"ELEMENT_SET_NO":999,"REV_AT_EPOCH":573,"BSTAR":0.070837726,"MEAN_MOTION_DOT":0.01314943,"MEAN_MOTION_DDOT":0},{"OBJECT_NAME":"FLOCK 4H-18","OBJECT_ID":"2025-276BH","EPOCH":"2026-03-09T16:52:19.316640","MEAN_MOTION":15.1850104,"ECCENTRICITY":0.00043189,"INCLINATION":97.4245,"RA_OF_ASC_NODE":143.8758,"ARG_OF_PERICENTER":35.357,"MEAN_ANOMALY":324.795,"EPHEMERIS_TYPE":0,"CLASSIFICATION_TYPE":"U","NORAD_CAT_ID":66721,"ELEMENT_SET_NO":999,"REV_AT_EPOCH":1531,"BSTAR":0.00039590396,"MEAN_MOTION_DOT":8.104e-5,"MEAN_MOTION_DDOT":0}]
